STARLINK-31206          
1 59028U 24038F   26068.41316328 -.00000655  00000+0 -14307-4 0  9997
2 59028  42.9983 323.5845 0000464 349.5799  10.5043 15.27574840115486
FLOCK 4G-21             
1 62651U 25009AU  26068.19487675  .00013648  00000+0  49619-3 0  9998
2 62651  97.4032 151.1274 0000465 329.5782  30.5431 15.28381075 63677
